ATLAS CENTAUR R/B       
1 06155U 72065B   26030.65215554  .00001745  00000+0  24147-3 0  9998
2 06155  35.0001 168.6458 0033252  49.1999 311.1579 14.77569722835634
SL-8 R/B                
1 08459U 75112B   26031.14945807  .00000259  00000+0  93859-4 0  9995
2 08459  74.0600  87.9745 0015792 193.3312 166.7428 14.38184139626472
SL-3 R/B                
1 10114U 77057B   26031.08763943  .00013031  00000+0  28377-3 0  9992
2 10114  97.5713 201.3984 0008458  62.8706 297.3403 15.44383836662526
SEASAT 1                
1 10967U 78064A   26030.93519611  .00000402  00000+0  15084-3 0  9990
2 10967 108.0164  46.2655 0001391 289.8108  70.2888 14.46126194501055
SL-14 R/B               
1 11267U 79011B   26030.75237470  .00000923  00000+0  88756-4 0  9992
2 11267  82.5262 132.5632 0016048 179.0468 181.0786 14.91856787523120
SL-8 R/B                
1 11574U 79089B   26031.08306380  .00000360  00000+0  11688-3 0  9996
2 11574  74.0694 160.6526 0016228 338.4713  21.5759 14.42325084430687
SL-14 R/B               
1 11672U 80005B   26030.94183877  .00000872  00000+0  85822-4 0  9993
2 11672  82.5169 343.0312 0014251 292.0815  67.8891 14.90874716470867
SL-8 R/B                
1 12139U 81003B   26030.90297395  .00024062  00000+0  63877-3 0  9990
2 12139  82.9392 324.9256 0265553 310.7767  47.0685 15.09490772308970
SL-3 R/B                
1 12465U 81046B   26031.13415473  .00012518  00000+0  30136-3 0  9999
2 12465  81.2344 334.7918 0020195 145.1277 215.1293 15.40923200432649
SL-3 R/B                
1 12904U 81103B   26031.07999617  .00005083  00000+0  22810-3 0  9990
2 12904  81.1574 257.5444 0014118  53.8116 306.4418 15.20917977967516
SL-3 R/B                
1 13068U 82013B   26031.10433473  .00004758  00000+0  20851-3 0  9991
2 13068  81.1722 204.8042 0021942 308.2070  51.7185 15.21590359398635
SL-3 R/B                
1 13154U 82039B   26031.08361589  .00002680  00000+0  16243-3 0  9992
2 13154  81.1637 259.3033 0030078  87.4997 272.9671 15.09869251375969
