CCSDS_OMM_VERS = 2.0
CREATION_DATE  = 
ORIGINATOR     = 

OBJECT_NAME    = ATLAS CENTAUR R/B
OBJECT_ID      = 1972-065B
CENTER_NAME    = EARTH
REF_FRAME      = TEME
TIME_SYSTEM    = UTC
MEAN_ELEMENT_THEORY = SGP/SGP4

EPOCH          = 2026-01-30T15:39:06.238656
MEAN_MOTION    = 14.77569722
ECCENTRICITY   = .00332528
INCLINATION    = 35.0001
RA_OF_ASC_NODE = 168.6458
ARG_OF_PERICENTER = 49.1999
MEAN_ANOMALY   = 311.1579

EPHEMERIS_TYPE = 0
CLASSIFICATION_TYPE = U
NORAD_CAT_ID   = 6155
ELEMENT_SET_NO = 999
REV_AT_EPOCH   = 83563
BSTAR          = .24147454E-3
MEAN_MOTION_DOT = .1745E-4
MEAN_MOTION_DDOT = 0

CCSDS_OMM_VERS = 2.0
CREATION_DATE  = 
ORIGINATOR     = 

OBJECT_NAME    = SL-8 R/B
OBJECT_ID      = 1975-112B
CENTER_NAME    = EARTH
REF_FRAME      = TEME
TIME_SYSTEM    = UTC
MEAN_ELEMENT_THEORY = SGP/SGP4

EPOCH          = 2026-01-31T03:35:13.177248
MEAN_MOTION    = 14.38184139
ECCENTRICITY   = .0015792
INCLINATION    = 74.0600
RA_OF_ASC_NODE = 87.9745
ARG_OF_PERICENTER = 193.3312
MEAN_ANOMALY   = 166.7428

EPHEMERIS_TYPE = 0
CLASSIFICATION_TYPE = U
NORAD_CAT_ID   = 8459
ELEMENT_SET_NO = 999
REV_AT_EPOCH   = 62647
BSTAR          = .93859E-4
MEAN_MOTION_DOT = .259E-5
MEAN_MOTION_DDOT = 0

CCSDS_OMM_VERS = 2.0
CREATION_DATE  = 
ORIGINATOR     = 

OBJECT_NAME    = SL-3 R/B
OBJECT_ID      = 1977-057B
CENTER_NAME    = EARTH
REF_FRAME      = TEME
TIME_SYSTEM    = UTC
MEAN_ELEMENT_THEORY = SGP/SGP4

EPOCH          = 2026-01-31T02:06:12.046752
MEAN_MOTION    = 15.44383836
ECCENTRICITY   = .0008458
INCLINATION    = 97.5713
RA_OF_ASC_NODE = 201.3984
ARG_OF_PERICENTER = 62.8706
MEAN_ANOMALY   = 297.3403

EPHEMERIS_TYPE = 0
CLASSIFICATION_TYPE = U
NORAD_CAT_ID   = 10114
ELEMENT_SET_NO = 999
REV_AT_EPOCH   = 66252
BSTAR          = .28377E-3
MEAN_MOTION_DOT = .13031E-3
MEAN_MOTION_DDOT = 0

CCSDS_OMM_VERS = 2.0
CREATION_DATE  = 
ORIGINATOR     = 

OBJECT_NAME    = SEASAT 1
OBJECT_ID      = 1978-064A
CENTER_NAME    = EARTH
REF_FRAME      = TEME
TIME_SYSTEM    = UTC
MEAN_ELEMENT_THEORY = SGP/SGP4

EPOCH          = 2026-01-30T22:26:40.943904
MEAN_MOTION    = 14.46126194
ECCENTRICITY   = .0001391
INCLINATION    = 108.0164
RA_OF_ASC_NODE = 46.2655
ARG_OF_PERICENTER = 289.8108
MEAN_ANOMALY   = 70.2888

EPHEMERIS_TYPE = 0
CLASSIFICATION_TYPE = U
NORAD_CAT_ID   = 10967
ELEMENT_SET_NO = 999
REV_AT_EPOCH   = 50105
BSTAR          = .15084E-3
MEAN_MOTION_DOT = .402E-5
MEAN_MOTION_DDOT = 0

CCSDS_OMM_VERS = 2.0
CREATION_DATE  = 
ORIGINATOR     = 

OBJECT_NAME    = SL-14 R/B
OBJECT_ID      = 1979-011B
CENTER_NAME    = EARTH
REF_FRAME      = TEME
TIME_SYSTEM    = UTC
MEAN_ELEMENT_THEORY = SGP/SGP4

EPOCH          = 2026-01-30T18:03:25.174080
MEAN_MOTION    = 14.91856787
ECCENTRICITY   = .0016048
INCLINATION    = 82.5262
RA_OF_ASC_NODE = 132.5632
ARG_OF_PERICENTER = 179.0468
MEAN_ANOMALY   = 181.0786

EPHEMERIS_TYPE = 0
CLASSIFICATION_TYPE = U
NORAD_CAT_ID   = 11267
ELEMENT_SET_NO = 999
REV_AT_EPOCH   = 52312
BSTAR          = .88755879E-4
MEAN_MOTION_DOT = .923E-5
MEAN_MOTION_DDOT = 0

CCSDS_OMM_VERS = 2.0
CREATION_DATE  = 
ORIGINATOR     = 

OBJECT_NAME    = SL-8 R/B
OBJECT_ID      = 1979-089B
CENTER_NAME    = EARTH
REF_FRAME      = TEME
TIME_SYSTEM    = UTC
MEAN_ELEMENT_THEORY = SGP/SGP4

EPOCH          = 2026-01-31T01:59:36.712320
MEAN_MOTION    = 14.42325084
ECCENTRICITY   = .0016228
INCLINATION    = 74.0694
RA_OF_ASC_NODE = 160.6526
ARG_OF_PERICENTER = 338.4713
MEAN_ANOMALY   = 21.5759

EPHEMERIS_TYPE = 0
CLASSIFICATION_TYPE = U
NORAD_CAT_ID   = 11574
ELEMENT_SET_NO = 999
REV_AT_EPOCH   = 43068
BSTAR          = .11688E-3
MEAN_MOTION_DOT = .36E-5
MEAN_MOTION_DDOT = 0

CCSDS_OMM_VERS = 2.0
CREATION_DATE  = 
ORIGINATOR     = 

OBJECT_NAME    = SL-14 R/B
OBJECT_ID      = 1980-005B
CENTER_NAME    = EARTH
REF_FRAME      = TEME
TIME_SYSTEM    = UTC
MEAN_ELEMENT_THEORY = SGP/SGP4

EPOCH          = 2026-01-30T22:36:14.869728
MEAN_MOTION    = 14.90874716
ECCENTRICITY   = .0014251
INCLINATION    = 82.5169
RA_OF_ASC_NODE = 343.0312
ARG_OF_PERICENTER = 292.0815
MEAN_ANOMALY   = 67.8891

EPHEMERIS_TYPE = 0
CLASSIFICATION_TYPE = U
NORAD_CAT_ID   = 11672
ELEMENT_SET_NO = 999
REV_AT_EPOCH   = 47086
BSTAR          = .85822E-4
MEAN_MOTION_DOT = .872E-5
MEAN_MOTION_DDOT = 0

CCSDS_OMM_VERS = 2.0
CREATION_DATE  = 
ORIGINATOR     = 

OBJECT_NAME    = SL-8 R/B
OBJECT_ID      = 1981-003B
CENTER_NAME    = EARTH
REF_FRAME      = TEME
TIME_SYSTEM    = UTC
MEAN_ELEMENT_THEORY = SGP/SGP4

EPOCH          = 2026-01-30T21:40:16.949280
MEAN_MOTION    = 15.09490772
ECCENTRICITY   = .0265553
INCLINATION    = 82.9392
RA_OF_ASC_NODE = 324.9256
ARG_OF_PERICENTER = 310.7767
MEAN_ANOMALY   = 47.0685

EPHEMERIS_TYPE = 0
CLASSIFICATION_TYPE = U
NORAD_CAT_ID   = 12139
ELEMENT_SET_NO = 999
REV_AT_EPOCH   = 30897
BSTAR          = .63877E-3
MEAN_MOTION_DOT = .24062E-3
MEAN_MOTION_DDOT = 0

CCSDS_OMM_VERS = 2.0
CREATION_DATE  = 
ORIGINATOR     = 

OBJECT_NAME    = SL-3 R/B
OBJECT_ID      = 1981-046B
CENTER_NAME    = EARTH
REF_FRAME      = TEME
TIME_SYSTEM    = UTC
MEAN_ELEMENT_THEORY = SGP/SGP4

EPOCH          = 2026-01-31T03:13:10.968672
MEAN_MOTION    = 15.40923200
ECCENTRICITY   = .0020195
INCLINATION    = 81.2344
RA_OF_ASC_NODE = 334.7918
ARG_OF_PERICENTER = 145.1277
MEAN_ANOMALY   = 215.1293

EPHEMERIS_TYPE = 0
CLASSIFICATION_TYPE = U
NORAD_CAT_ID   = 12465
ELEMENT_SET_NO = 999
REV_AT_EPOCH   = 43264
BSTAR          = .30136E-3
MEAN_MOTION_DOT = .12518E-3
MEAN_MOTION_DDOT = 0

CCSDS_OMM_VERS = 2.0
CREATION_DATE  = 
ORIGINATOR     = 

OBJECT_NAME    = SL-3 R/B
OBJECT_ID      = 1981-103B
CENTER_NAME    = EARTH
REF_FRAME      = TEME
TIME_SYSTEM    = UTC
MEAN_ELEMENT_THEORY = SGP/SGP4

EPOCH          = 2026-01-31T01:55:11.669088
MEAN_MOTION    = 15.20917977
ECCENTRICITY   = .0014118
INCLINATION    = 81.1574
RA_OF_ASC_NODE = 257.5444
ARG_OF_PERICENTER = 53.8116
MEAN_ANOMALY   = 306.4418

EPHEMERIS_TYPE = 0
CLASSIFICATION_TYPE = U
NORAD_CAT_ID   = 12904
ELEMENT_SET_NO = 999
REV_AT_EPOCH   = 96751
BSTAR          = .2281E-3
MEAN_MOTION_DOT = .5083E-4
MEAN_MOTION_DDOT = 0

CCSDS_OMM_VERS = 2.0
CREATION_DATE  = 
ORIGINATOR     = 

OBJECT_NAME    = SL-3 R/B
OBJECT_ID      = 1982-013B
CENTER_NAME    = EARTH
REF_FRAME      = TEME
TIME_SYSTEM    = UTC
MEAN_ELEMENT_THEORY = SGP/SGP4

EPOCH          = 2026-01-31T02:30:14.520672
MEAN_MOTION    = 15.21590359
ECCENTRICITY   = .0021942
INCLINATION    = 81.1722
RA_OF_ASC_NODE = 204.8042
ARG_OF_PERICENTER = 308.2070
MEAN_ANOMALY   = 51.7185

EPHEMERIS_TYPE = 0
CLASSIFICATION_TYPE = U
NORAD_CAT_ID   = 13068
ELEMENT_SET_NO = 999
REV_AT_EPOCH   = 39863
BSTAR          = .20851E-3
MEAN_MOTION_DOT = .4758E-4
MEAN_MOTION_DDOT = 0

CCSDS_OMM_VERS = 2.0
CREATION_DATE  = 
ORIGINATOR     = 

OBJECT_NAME    = SL-3 R/B
OBJECT_ID      = 1982-039B
CENTER_NAME    = EARTH
REF_FRAME      = TEME
TIME_SYSTEM    = UTC
MEAN_ELEMENT_THEORY = SGP/SGP4

EPOCH          = 2026-01-31T02:00:24.412896
MEAN_MOTION    = 15.09869251
ECCENTRICITY   = .0030078
INCLINATION    = 81.1637
RA_OF_ASC_NODE = 259.3033
ARG_OF_PERICENTER = 87.4997
MEAN_ANOMALY   = 272.9671

EPHEMERIS_TYPE = 0
CLASSIFICATION_TYPE = U
NORAD_CAT_ID   = 13154
ELEMENT_SET_NO = 999
REV_AT_EPOCH   = 37596
BSTAR          = .16243E-3
MEAN_MOTION_DOT = .268E-4
MEAN_MOTION_DDOT = 0

